P/2012 B1 (PANSTARRS),e,7.6100,36.2164,162.2221,6.533490,0.0590182,0.40932728,220.4392,09/24.0/2023,2000,g  9.0,4.0
# From MPC 78590
P/2012 C3 (PANSTARRS),e,9.0920,135.3677,344.9542,9.748681,0.0323806,0.63011148,359.9758,10/06.0/2011,2000,g 13.0,4.0
# From MPC 84931
P/2012 F2 (PANSTARRS),e,14.6963,226.9619,33.2840,6.339746,0.0617442,0.54041991,236.1969,09/24.0/2023,2000,g 12.0,4.0
# From MPEC 2022-ED3
P/2012 G1 (PANSTARRS),e,12.1693,283.2610,266.1008,4.164822,0.1159603,0.32902932,126.3377,09/24.0/2023,2000,g 15.0,4.0
# From MPC 80898
P/2012 K3 (Gibbs),e,13.1847,125.8199,172.2282,3.629591,0.1425337,0.42210398,213.7758,09/24.0/2023,2000,g 15.0,4.0
# From MPC 88326
P/2012 NJ (La Sagra),e,84.4866,315.6315,338.3889,8.466865,0.0400055,0.84662047,164.7193,09/24.0/2023,2000,g 14.5,4.0
# From MPC 81470
P/2012 O1 (McNaught),e,7.4261,91.9063,238.3555,3.542061,0.1478496,0.59399790,246.3219,09/24.0/2023,2000,g 17.5,4.0
# From MPC 80899
P/2012 O2 (McNaught),e,24.4584,120.6771,183.4738,3.627131,0.1426787,0.53163032,228.6814,09/24.0/2023,2000,g 17.0,4.0
# From MPEC 2022-F14
C/2012 S1 (ISON),h,12/01.7503/2013,62.2197,295.4964,346.1618,1.000019,0.014170,2000,8.5,3.2
# From MPC 82320
P/2012 T2 (PANSTARRS),e,12.5704,73.7199,310.9712,5.724583,0.0719595,0.16252047,272.8293,09/24.0/2023,2000,g 10.0,4.0
# From MPC 80900
P/2012 T3 (PANSTARRS),e,9.5538,114.3444,195.5509,6.152189,0.0645892,0.61626491,268.5848,09/24.0/2023,2000,g 15.0,4.0
# From MPC 82720
P/2012 U2 (PANSTARRS),e,10.7591,185.3209,228.3035,7.129087,0.0517789,0.50045377,205.0647,09/24.0/2023,2000,g 12.5,4.0
# From MPC 84024
P/2012 US27 (Siding Spring),e,39.3711,49.2119,0.8549,5.163166,0.0840098,0.64839067,326.9673,09/24.0/2023,2000,g 13.5,4.0
# From MPC 82721
P/2012 WA34 (Lemmon-PANSTARRS),e,6.0828,93.5529,356.6598,4.677616,0.0974243,0.34341620,7.5078,09/24.0/2023,2000,g 13.5,4.0
# From MPC 82721
P/2013 AL76 (Catalina),e,144.8907,146.0420,27.0399,6.501857,0.0594495,0.68556504,234.9068,09/24.0/2023,2000,g 16.0,4.0
# From MPC 91612
P/2013 G1 (Kowalski),e,5.4566,221.2894,51.5394,6.900810,0.0543693,0.51050786,194.6279,09/24.0/2023,2000,g 11.0,4.0
# From MPC 84025
P/2013 G4 (PANSTARRS),e,5.9164,339.6245,214.5863,4.436154,0.1054858,0.40903754,48.7242,09/24.0/2023,2000,g 15.0,4.0
# From MPC 91613
P/2013 J2 (McNaught),e,15.5011,289.3008,37.9175,6.224088,0.0634732,0.65691496,233.2982,09/24.0/2023,2000,g 13.0,4.0
# From MPC 86229
P/2013 N3 (PANSTARRS),e,2.1726,17.4965,323.9816,7.398095,0.0489806,0.59250795,171.6674,09/24.0/2023,2000,g 13.0,4.0
# From MPC 85834
P/2013 N5 (PANSTARRS),e,23.4576,187.1548,176.9653,6.797011,0.0556195,0.73237762,207.3649,09/24.0/2023,2000,g 17.0,4.0
# From MPC 85834
P/2013 P1 (PANSTARRS),e,18.7168,160.6250,138.2480,8.586567,0.0391719,0.60378625,151.3136,09/24.0/2023,2000,g 12.0,4.0
# From MPEC 2022-V95
P/2013 R3 (Catalina-PANSTARRS),e,0.8651,341.9594,11.3621,3.031117,0.1867670,0.27558336,326.6586,09/24.0/2023,2000,g 14.0,4.0
# From unp
P/2013 R3-A (Catalina-PANSTARRS),e,0.8642,341.9143,11.4410,3.030872,0.1867896,0.27551426,326.7242,09/24.0/2023,2000,g  9.0,4.0
# From MPEC 2015-M77
P/2013 R3-B (Catalina-PANSTARRS),e,0.8655,341.9702,11.3758,3.031091,0.1867693,0.27555943,326.6537,09/24.0/2023,2000,g  9.0,4.0
# From MPC 85835
P/2013 T1 (PANSTARRS),e,24.2992,10.0789,346.1944,5.855540,0.0695591,0.62417663,257.1233,09/24.0/2023,2000,g 16.5,4.0
# From MPC 86643
P/2013 T2 (Schwartz),e,9.4551,0.8035,345.5979,3.492372,0.1510162,0.50080702,210.3621,09/24.0/2023,2000,g 16.0,4.0
# From MPC 91613
P/2013 W1 (PANSTARRS),e,4.6980,117.8372,1.2149,3.486664,0.1513871,0.59320019,167.8307,09/24.0/2023,2000,g 17.5,4.0
# From MPC101095
P/2013 YG46 (Spacewatch),e,7.8581,48.8319,242.6659,3.277145,0.1661348,0.45510281,43.2866,09/24.0/2023,2000,g 10.0,4.0
# From MPC 89728
P/2014 A2 (Hill),e,24.5561,106.6390,356.1470,5.926267,0.0683175,0.64606679,248.3852,09/24.0/2023,2000,g 15.0,4.0
# From MPC 92981
P/2014 A3 (PANSTARRS),e,13.7175,229.9778,214.1975,4.606984,0.0996733,0.24639506,15.3762,09/24.0/2023,2000,g 12.0,4.0
# From MPC102095
P/2014 C1 (TOTAS),e,2.6932,167.8117,24.0593,3.029396,0.1869262,0.45183397,302.6368,09/24.0/2023,2000,g 15.5,4.0
# From MPEC 2022-WD2
C/2014 F3 (Sheppard-Trujillo),e,6.5246,326.1216,4.8687,14.47292,0.0179007,0.60500132,15.1796,09/24.0/2023,2000,g  6.0,4.0
# From MPC 98560
P/2014 L2 (NEOWISE),e,5.1963,149.3422,182.7343,6.306776,0.0622290,0.64744074,208.5371,09/24.0/2023,2000,g 12.0,4.0
# From MPC 90769
P/2014 L3 (Hill),e,6.2609,115.5047,178.7103,8.180899,0.0421214,0.77207610,142.1426,09/24.0/2023,2000,g 16.0,4.0
# From MPC 91614
P/2014 M4 (PANSTARRS),e,3.3465,263.1632,148.0953,5.866323,0.0693674,0.59599456,221.1398,09/24.0/2023,2000,g 15.0,4.0
# From MPEC 2022-K19
P/2014 MG4 (Spacewatch-PANSTARRS),e,9.3649,311.7123,298.9939,5.013813,0.0877914,0.25876359,329.3397,09/24.0/2023,2000,g  9.5,4.0
# From MPC 98560
P/2014 O3 (PANSTARRS),e,7.7922,87.6334,204.7989,7.580990,0.0472188,0.38360089,162.8708,09/24.0/2023,2000,g 10.5,4.0
# From MPEC 2023-J29
C/2014 OG392 (PANSTARRS),e,9.0329,145.8131,254.6474,12.25943,0.0229614,0.18652543,14.8478,09/24.0/2023,2000,g  6.0,4.0
# From MPC 91616
P/2014 U4 (PANSTARRS),e,6.4284,11.8900,347.8707,3.509973,0.1498816,0.46461203,142.7426,09/24.0/2023,2000,g 18.0,4.0
# From MPEC 2023-R20
C/2014 UN271 (Bernardinelli-Bernstein),h,01/19.6533/2031,95.4320,189.9032,326.1698,1.002315,10.952352,2000,2.5,3.2
# From MPC 95211
P/2014 V1 (PANSTARRS),e,22.5182,166.1933,177.6805,5.479341,0.0768443,0.53418820,242.8535,09/24.0/2023,2000,g 14.0,4.0
# From MPEC 2023-R20
P/2014 W1 (PANSTARRS),e,8.8372,246.1919,152.0747,4.474280,0.1041404,0.39015230,351.1079,09/24.0/2023,2000,g 15.5,4.0
# From MPC105542
P/2014 W4 (PANSTARRS),e,15.2838,33.3911,67.5740,6.584962,0.0583276,0.35406088,164.6153,09/24.0/2023,2000,g 11.0,4.0
# From MPC 94281
P/2014 X1 (Elenin),e,26.0592,61.5842,33.8577,6.202813,0.0638000,0.71012216,203.2876,09/24.0/2023,2000,g 15.0,4.0
# From MPC 92275
P/2015 A3 (PANSTARRS),e,172.5458,277.3926,249.5486,7.817306,0.0450940,0.85025901,141.5754,09/24.0/2023,2000,g 20.0,4.0
# From MPC 99270
P/2015 B1 (PANSTARRS),e,18.0636,352.8944,188.8092,9.485320,0.0337385,0.36627010,99.1528,09/24.0/2023,2000,g  8.5,4.0
# From MPC109141
P/2015 B4 (Lemmon-PANSTARRS),e,1.7654,266.0942,227.1670,8.511632,0.0396903,0.56119276,125.2038,09/24.0/2023,2000,g 11.0,4.0
# From MPC101096
P/2015 C1 (TOTAS-Gibbs),e,13.9346,348.7870,178.0397,6.569525,0.0585333,0.56208033,180.0712,09/24.0/2023,2000,g 12.5,4.0
# From MPC109141
P/2015 D5 (Kowalski),e,20.5456,74.0818,39.6083,8.948949,0.0368168,0.49066817,127.4116,09/24.0/2023,2000,g  9.0,4.0
# From MPC 96866
P/2015 D6 (Lemmon-PANSTARRS),e,20.2147,45.7890,124.9634,7.131824,0.0517491,0.36176881,155.9235,09/24.0/2023,2000,g 10.5,4.0
# From MPEC 2021-P47
P/2015 HG16 (PANSTARRS),e,18.9832,57.0802,46.8801,4.803106,0.0936312,0.35073554,323.6538,09/24.0/2023,2000,g 12.5,4.0
# From MPC 95213
P/2015 K5 (PANSTARRS),e,39.9391,134.2485,106.2576,6.727463,0.0564842,0.55151588,171.7216,09/24.0/2023,2000,g 13.5,4.0
# From MPC107684
P/2015 M2 (PANSTARRS),e,3.9684,86.5783,226.0794,7.248284,0.0505070,0.17900098,148.2048,09/24.0/2023,2000,g  8.5,4.0
# From MPC 99819
P/2015 P4 (PANSTARRS),e,8.7188,104.6388,280.7429,6.046580,0.0662887,0.58578934,185.5247,09/24.0/2023,2000,g 14.0,4.0
# From MPEC 2022-K19
P/2015 PD229 (Cameron-ISON),e,2.0235,342.6799,352.7492,7.197640,0.0510410,0.32686600,151.0840,09/24.0/2023,2000,g 11.5,2.0
# From MPC 96867
P/2015 Q2 (Pimentel),e,146.5593,228.5599,244.6780,7.353050,0.0494314,0.75099494,145.1691,09/24.0/2023,2000,g 15.5,4.0
# From MPC 98562
P/2015 R1 (PANSTARRS),e,22.7032,48.3087,300.6166,5.881336,0.0691019,0.63396255,207.7463,09/24.0/2023,2000,g 14.0,4.0
# From MPC 95734
P/2015 R2 (PANSTARRS),e,15.4830,168.5910,149.8796,4.484030,0.1038009,0.45254704,313.4304,09/24.0/2023,2000,g 14.5,4.0
# From MPC102953
P/2015 TO19 (Lemmon-PANSTARRS),e,6.5026,321.6138,89.2597,4.550143,0.1015469,0.35963575,279.6672,09/24.0/2023,2000,g 14.0,4.0
# From MPC110080
P/2015 TP200 (LINEAR),e,8.7791,7.0031,82.4426,7.262671,0.0503570,0.53680151,126.8766,09/24.0/2023,2000,g 11.0,4.0
# From MPC101098
P/2015 W2 (Catalina),e,11.6135,294.0861,117.6353,7.290652,0.0500673,0.63556913,145.6871,09/24.0/2023,2000,g 13.0,4.0
# From MPEC 2022-OB6
C/2015 XY1 (Lemmon),e,148.8528,281.5449,196.1422,8440,0.0000013,0.99906044,0.0000,04/25.0482/2018,2000,g  5.5,4.0
# From MPEC 2023-J29
P/2015 X3 (PANSTARRS),e,24.4173,77.2574,306.8844,5.002092,0.0881001,0.44014105,260.8866,09/24.0/2023,2000,g 15.0,4.0
# From MPC115881
P/2015 X6 (PANSTARRS),e,4.5655,106.9303,329.8068,2.751636,0.2159323,0.17345866,231.3439,09/24.0/2023,2000,g 16.0,4.0
# From MPEC 2023-P35
P/2015 XG422 (PANSTARRS),e,20.1743,178.9635,43.5549,4.339300,0.1090372,0.30738907,272.0147,09/24.0/2023,2000,g 13.5,4.0
# From MPC100282
P/2016 A2 (Christensen),e,26.4045,291.6188,141.2910,4.753608,0.0950975,0.27116657,287.7319,09/24.0/2023,2000,g 11.5,4.0
# From MPEC 2022-OB6
P/2016 A3 (PANSTARRS),e,8.5126,187.2004,340.8532,7.875363,0.0445962,0.38614431,104.4812,09/24.0/2023,2000,g 10.0,4.0
# From MPC102098
P/2016 A7 (PANSTARRS),e,16.6075,221.5001,352.4668,5.035912,0.0872141,0.56502175,242.1757,09/24.0/2023,2000,g 16.0,4.0
# From MPEC 2021-P47
P/2016 G1 (PANSTARRS),e,10.9713,204.0158,111.1470,2.583418,0.2373625,0.21042202,217.5461,09/24.0/2023,2000,g 14.0,4.0
# From MPEC 2017-D91
P/2016 J1-A (PANSTARRS),e,14.3282,199.8081,47.4203,3.177057,0.1740470,0.22749900,100.7761,09/24.0/2023,2000,g 16.5,4.0
# From MPEC 2017-A77
P/2016 J1-B (PANSTARRS),e,14.3309,199.8129,47.3124,3.176697,0.1740766,0.22734672,100.9304,09/24.0/2023,2000,g 17.0,4.0
# From MPEC 2022-ED3
C/2016 M1 (PANSTARRS),e,90.8131,92.2785,209.9250,13646,0.0000006,0.99983776,0.0000,08/10.2733/2018,2000,g  5.0,4.0
# From MPEC 2021-P47
C/2016 N6 (PANSTARRS),e,105.8792,298.8631,162.5629,921.2301,0.0000352,0.99711251,0.0000,07/17.1706/2018,2000,g  7.0,4.0
# From MPC102099
